{
  "type": "FeatureCollection",
  "features": [
    {
      "type": "Feature",
      "properties": {
        "norad_id": 30912,
        "name": "FENGYUN 1C DEB",
        "group": "fengyun-1c-debris",
        "lat": -44.80935469417338,
        "lon": -164.47438070666192,
        "alt_km": 641.4611212034451,
        "timestamp": "2025-12-11T08:58:27.403153+00:00",
        "meta_object_name": "FENGYUN 1C DEB",
        "meta_object_id": "1999-025AZA",
        "meta_epoch": "2025-12-10T12:13:03.556416",
        "meta_mean_motion": 14.89277966,
        "meta_eccentricity": 0.00593643,
        "meta_inclination": 98.9985,
        "meta_ra_of_asc_node": 185.4864,
        "meta_arg_of_pericenter": 104.3745,
        "meta_mean_anomaly": 256.4068,
        "meta_ephemeris_type": 0,
        "meta_classification_type": "U",
        "meta_norad_cat_id": 30912,
        "meta_element_set_no": 999,
        "meta_rev_at_epoch": 99371,
        "meta_bstar": 0.00227208,
        "meta_mean_motion_dot": 0.00022234,
        "meta_mean_motion_ddot": 0,
        "tle_line1": "1 30912U 99025AZA 25344.50906894  .00022234  00000+0  22721-2 0  9997",
        "tle_line2": "2 30912  98.9985 185.4864 0059364 104.3745 256.4068 14.89277966993711"
      },
      "geometry": {
        "type": "Point",
        "coordinates": [
          -164.47438070666192,
          -44.80935469417338
        ]
      }
    },
    {
      "type": "Feature",
      "properties": {
        "norad_id": 30913,
        "name": "FENGYUN 1C DEB",
        "group": "fengyun-1c-debris",
        "lat": 3.3553700023923705,
        "lon": -167.1139077495101,
        "alt_km": 844.3916838020896,
        "timestamp": "2025-12-11T08:58:27.403164+00:00",
        "meta_object_name": "FENGYUN 1C DEB",
        "meta_object_id": "1999-025AZB",
        "meta_epoch": "2025-12-11T01:17:58.011360",
        "meta_mean_motion": 14.0494594,
        "meta_eccentricity": 0.004845,
        "meta_inclination": 98.7463,
        "meta_ra_of_asc_node": 12.0607,
        "meta_arg_of_pericenter": 185.9445,
        "meta_mean_anomaly": 174.1154,
        "meta_ephemeris_type": 0,
        "meta_classification_type": "U",
        "meta_norad_cat_id": 30913,
        "meta_element_set_no": 999,
        "meta_rev_at_epoch": 95894,
        "meta_bstar": 0.00070828,
        "meta_mean_motion_dot": 1.109e-05,
        "meta_mean_motion_ddot": 0,
        "tle_line1": "1 30913U 99025AZB 25345.05414365  .00001109  00000+0  70828-3 0  9996",
        "tle_line2": "2 30913  98.7463  12.0607 0048450 185.9445 174.1154 14.04945940958946"
      },
      "geometry": {
        "type": "Point",
        "coordinates": [
          -167.1139077495101,
          3.3553700023923705
        ]
      }
    },
    {
      "type": "Feature",
      "properties": {
        "norad_id": 30914,
        "name": "FENGYUN 1C DEB",
        "group": "fengyun-1c-debris",
        "lat": 15.098251945057326,
        "lon": 52.08869082733703,
        "alt_km": 1610.130526960581,
        "timestamp": "2025-12-11T08:58:27.403174+00:00",
        "meta_object_name": "FENGYUN 1C DEB",
        "meta_object_id": "1999-025AZC",
        "meta_epoch": "2025-12-10T22:58:09.615072",
        "meta_mean_motion": 13.08825188,
        "meta_eccentricity": 0.0516313,
        "meta_inclination": 99.9827,
        "meta_ra_of_asc_node": 228.9749,
        "meta_arg_of_pericenter": 358.3788,
        "meta_mean_anomaly": 1.5635,
        "meta_ephemeris_type": 0,
        "meta_classification_type": "U",
        "meta_norad_cat_id": 30914,
        "meta_element_set_no": 999,
        "meta_rev_at_epoch": 59052,
        "meta_bstar": 0.0052744,
        "meta_mean_motion_dot": 3.428e-05,
        "meta_mean_motion_ddot": 0,
        "tle_line1": "1 30914U 99025AZC 25344.95705573  .00003428  00000+0  52744-2 0  9991",
        "tle_line2": "2 30914  99.9827 228.9749 0516313 358.3788   1.5635 13.08825188590520"
      },
      "geometry": {
        "type": "Point",
        "coordinates": [
          52.08869082733703,
          15.098251945057326
        ]
      }
    },
    {
      "type": "Feature",
      "properties": {
        "norad_id": 30915,
        "name": "FENGYUN 1C DEB",
        "group": "fengyun-1c-debris",
        "lat": 28.56488525076734,
        "lon": 56.60534130300013,
        "alt_km": 837.7985389036394,
        "timestamp": "2025-12-11T08:58:27.403184+00:00",
        "meta_object_name": "FENGYUN 1C DEB",
        "meta_object_id": "1999-025AZD",
        "meta_epoch": "2025-12-10T15:59:09.860640",
        "meta_mean_motion": 14.25015237,
        "meta_eccentricity": 0.00538155,
        "meta_inclination": 98.9415,
        "meta_ra_of_asc_node": 60.8015,
        "meta_arg_of_pericenter": 173.9227,
        "meta_mean_anomaly": 186.2616,
        "meta_ephemeris_type": 0,
        "meta_classification_type": "U",
        "meta_norad_cat_id": 30915,
        "meta_element_set_no": 999,
        "meta_rev_at_epoch": 96483,
        "meta_bstar": 0.002505326,
        "meta_mean_motion_dot": 5.913e-05,
        "meta_mean_motion_ddot": 0,
        "tle_line1": "1 30915U 99025AZD 25344.66608635  .00005913  00000+0  25053-2 0  9995",
        "tle_line2": "2 30915  98.9415  60.8015 0053815 173.9227 186.2616 14.25015237964839"
      },
      "geometry": {
        "type": "Point",
        "coordinates": [
          56.60534130300013,
          28.56488525076734
        ]
      }
    },
    {
      "type": "Feature",
      "properties": {
        "norad_id": 30916,
        "name": "FENGYUN 1C DEB",
        "group": "fengyun-1c-debris",
        "lat": 25.620553301587726,
        "lon": -129.92090144555658,
        "alt_km": 876.5779769934625,
        "timestamp": "2025-12-11T08:58:27.403195+00:00",
        "meta_object_name": "FENGYUN 1C DEB",
        "meta_object_id": "1999-025AZE",
        "meta_epoch": "2025-12-09T03:31:45.007680",
        "meta_mean_motion": 14.0877406,
        "meta_eccentricity": 0.00625639,
        "meta_inclination": 99.002,
        "meta_ra_of_asc_node": 43.4963,
        "meta_arg_of_pericenter": 268.4567,
        "meta_mean_anomaly": 118.5461,
        "meta_ephemeris_type": 0,
        "meta_classification_type": "U",
        "meta_norad_cat_id": 30916,
        "meta_element_set_no": 999,
        "meta_rev_at_epoch": 95793,
        "meta_bstar": 0.0014002638,
        "meta_mean_motion_dot": 2.414e-05,
        "meta_mean_motion_ddot": 0,
        "tle_line1": "1 30916U 99025AZE 25343.14704870  .00002414  00000+0  14003-2 0  9992",
        "tle_line2": "2 30916  99.0020  43.4963 0062563 268.4567 118.5461 14.08774060957936"
      },
      "geometry": {
        "type": "Point",
        "coordinates": [
          -129.92090144555658,
          25.620553301587726
        ]
      }
    },
    {
      "type": "Feature",
      "properties": {
        "norad_id": 30918,
        "name": "FENGYUN 1C DEB",
        "group": "fengyun-1c-debris",
        "lat": -61.13915710561281,
        "lon": 113.27855472127048,
        "alt_km": 1024.9064167797778,
        "timestamp": "2025-12-11T08:58:27.403205+00:00",
        "meta_object_name": "FENGYUN 1C DEB",
        "meta_object_id": "1999-025AZG",
        "meta_epoch": "2025-12-10T14:26:58.535232",
        "meta_mean_motion": 13.9680579,
        "meta_eccentricity": 0.0158244,
        "meta_inclination": 98.4154,
        "meta_ra_of_asc_node": 96.991,
        "meta_arg_of_pericenter": 131.3352,
        "meta_mean_anomaly": 246.9102,
        "meta_ephemeris_type": 0,
        "meta_classification_type": "U",
        "meta_norad_cat_id": 30918,
        "meta_element_set_no": 999,
        "meta_rev_at_epoch": 95023,
        "meta_bstar": 0.0022449,
        "meta_mean_motion_dot": 3.431e-05,
        "meta_mean_motion_ddot": 0,
        "tle_line1": "1 30918U 99025AZG 25344.60206638  .00003431  00000+0  22449-2 0  9998",
        "tle_line2": "2 30918  98.4154  96.9910 0158244 131.3352 246.9102 13.96805790950231"
      },
      "geometry": {
        "type": "Point",
        "coordinates": [
          113.27855472127048,
          -61.13915710561281
        ]
      }
    },
    {
      "type": "Feature",
      "properties": {
        "norad_id": 30920,
        "name": "FENGYUN 1C DEB",
        "group": "fengyun-1c-debris",
        "lat": 72.85681213023176,
        "lon": -22.7332355130662,
        "alt_km": 750.5152766717993,
        "timestamp": "2025-12-11T08:58:27.403215+00:00",
        "meta_object_name": "FENGYUN 1C DEB",
        "meta_object_id": "1999-025AZJ",
        "meta_epoch": "2025-12-11T01:42:26.573760",
        "meta_mean_motion": 14.16587686,
        "meta_eccentricity": 0.011005,
        "meta_inclination": 98.9189,
        "meta_ra_of_asc_node": 126.3608,
        "meta_arg_of_pericenter": 103.206,
        "meta_mean_anomaly": 258.1418,
        "meta_ephemeris_type": 0,
        "meta_classification_type": "U",
        "meta_norad_cat_id": 30920,
        "meta_element_set_no": 999,
        "meta_rev_at_epoch": 95070,
        "meta_bstar": 0.0056012,
        "meta_mean_motion_dot": 0.00011824,
        "meta_mean_motion_ddot": 0,
        "tle_line1": "1 30920U 99025AZJ 25345.07114090  .00011824  00000+0  56012-2 0  9991",
        "tle_line2": "2 30920  98.9189 126.3608 0110050 103.2060 258.1418 14.16587686950707"
      },
      "geometry": {
        "type": "Point",
        "coordinates": [
          -22.7332355130662,
          72.85681213023176
        ]
      }
    }
  ]
}